stk.v.5.0 
BEGIN Ephemeris 
NumberOfEphemerisPoints 30
ScenarioEpoch 	11 Jan 2021 08:20:47
DistanceUnit 	 Kilometers 
CentralBody Earth
CoordinateSystem Fixed
EphemerisTimePosVel
1.26552364417000e+05 -1.19022576097465e+04 2.22620594987195e+04 -8.18773932883363e+03 -2.48249217150293e+00 -2.57510024655943e-01 3.71759414883180e+01 
1.26612364417000e+05 -1.19530597831751e+04 2.22982937059115e+04 -8.00970226744602e+03 -2.46841951805887e+00 -2.75142576670330e-01 3.64424356604425e+01 
1.26672364417000e+05 -1.20028506384550e+04 2.23336898812402e+04 -7.83106679337265e+03 -2.45435937719592e+00 -2.92883580965020e-01 3.57062021999204e+01 
1.26732364417000e+05 -1.20516348242185e+04 2.23682373185635e+04 -7.65184662672160e+03 -2.44031350603840e+00 -3.10731902958587e-01 3.49672976554499e+01 
1.26792364417000e+05 -1.20994171410286e+04 2.24019254020384e+04 -7.47205552880327e+03 -2.42628365087995e+00 -3.28686386556442e-01 3.42257787653630e+01 
1.26852364417000e+05 -1.21462025402670e+04 2.24347436080124e+04 -7.29170730106502e+03 -2.41227154689533e+00 -3.46745854313484e-01 3.34817024532316e+01 
1.26912364417000e+05 -1.21919961229960e+04 2.24666815068996e+04 -7.11081578402475e+03 -2.39827891785448e+00 -3.64909107600305e-01 3.27351258234692e+01 
1.26972364417000e+05 -1.22368031387975e+04 2.24977287650415e+04 -6.92939485620072e+03 -2.38430747583851e+00 -3.83174926773426e-01 3.19861061569146e+01 
1.27032364417000e+05 -1.22806289845857e+04 2.25278751465509e+04 -6.74745843304125e+03 -2.37035892095798e+00 -4.01542071348939e-01 3.12347009064138e+01 
1.27092364417000e+05 -1.23234792033970e+04 2.25571105151399e+04 -6.56502046585147e+03 -2.35643494107334e+00 -4.20009280180002e-01 3.04809676923892e+01 
1.27152364417000e+05 -1.23653594831546e+04 2.25854248359308e+04 -6.38209494071910e+03 -2.34253721151770e+00 -4.38575271637858e-01 2.97249642984018e+01 
1.27212364417000e+05 -1.24062756554093e+04 2.26128081772503e+04 -6.19869587743908e+03 -2.32866739482192e+00 -4.57238743796348e-01 2.89667486667088e+01 
1.27272364417000e+05 -1.24462336940581e+04 2.26392507124061e+04 -6.01483732843550e+03 -2.31482714044199e+00 -4.75998374620241e-01 2.82063788938069e+01 
1.27332364417000e+05 -1.24852397140371e+04 2.26647427214460e+04 -5.83053337768344e+03 -2.30101808448891e+00 -4.94852822156825e-01 2.74439132259759e+01 
1.27392364417000e+05 -1.25232999699940e+04 2.26892745928986e+04 -5.64579813962803e+03 -2.28724184946097e+00 -5.13800724731274e-01 2.66794100548070e+01 
1.27452364417000e+05 -1.25604208549349e+04 2.27128368254968e+04 -5.46064575810410e+03 -2.27350004397857e+00 -5.32840701145165e-01 2.59129279127344e+01 
1.27512364417000e+05 -1.25966088988505e+04 2.27354200298818e+04 -5.27509040525375e+03 -2.25979426252165e+00 -5.51971350878602e-01 2.51445254685546e+01 
1.27572364417000e+05 -1.26318707673189e+04 2.27570149302891e+04 -5.08914628044226e+03 -2.24612608516954e+00 -5.71191254295792e-01 2.43742615229396e+01 
1.27632364417000e+05 -1.26662132600871e+04 2.27776123662145e+04 -4.90282760917382e+03 -2.23249707734364e+00 -5.90498972853901e-01 2.36021950039462e+01 
1.27692364417000e+05 -1.26996433096292e+04 2.27972032940619e+04 -4.71614864200688e+03 -2.21890878955269e+00 -6.09893049315134e-01 2.28283849625232e+01 
1.27752364417000e+05 -1.27321679796848e+04 2.28157787887708e+04 -4.52912365346729e+03 -2.20536275714079e+00 -6.29372007962310e-01 2.20528905680076e+01 
1.27812364417000e+05 -1.27637944637744e+04 2.28333300454241e+04 -4.34176694096211e+03 -2.19186050003820e+00 -6.48934354817508e-01 2.12757711036227e+01 
1.27872364417000e+05 -1.27945300836952e+04 2.28498483808360e+04 -4.15409282369110e+03 -2.17840352251487e+00 -6.68578577864162e-01 2.04970859619643e+01 
1.27932364417000e+05 -1.28243822879947e+04 2.28653252351188e+04 -3.96611564156003e+03 -2.16499331293706e+00 -6.88303147271972e-01 1.97168946404938e+01 
1.27992364417000e+05 -1.28533586504247e+04 2.28797521732304e+04 -3.77784975409147e+03 -2.15163134352656e+00 -7.08106515625270e-01 1.89352567370191e+01 
1.28052364417000e+05 -1.28814668683750e+04 2.28931208864995e+04 -3.58930953933593e+03 -2.13831907012307e+00 -7.27987118154383e-01 1.81522319451754e+01 
1.28112364417000e+05 -1.29087147612872e+04 2.29054231941308e+04 -3.40050939278239e+03 -2.12505793194943e+00 -7.47943372970087e-01 1.73678800499022e+01 
1.28172364417000e+05 -1.29351102690477e+04 2.29166510446880e+04 -3.21146372626942e+03 -2.11184935137997e+00 -7.67973681300948e-01 1.65822609229215e+01 
1.28232364417000e+05 -1.29606614503631e+04 2.29267965175557e+04 -3.02218696689539e+03 -2.09869473371188e+00 -7.88076427733795e-01 1.57954345182104e+01 
1.28292364417000e+05 -1.29853764811153e+04 2.29358518243795e+04 -2.83269355592863e+03 -2.08559546693966e+00 -8.08249980457087e-01 1.50074608674723e+01 


END Ephemeris